{"fetched_at":"2026-07-16T06:42:36.857Z","source":"https://celestrak.org/NORAD/elements/gp.php?GROUP=qianfan&FORMAT=JSON","constellation":"qianfan","records":[{"OBJECT_NAME":"QIANFAN-161","OBJECT_ID":"2026-108S","EPOCH":"2026-07-15T22:06:52.375392","CLASSIFICATION_TYPE":"U","MEAN_MOTION":13.75476813,"ECCENTRICITY":0.00191645,"INCLINATION":89.0109,"RA_OF_ASC_NODE":19.1102,"ARG_OF_PERICENTER":26.4275,"MEAN_ANOMALY":333.7864,"EPHEMERIS_TYPE":0,"NORAD_CAT_ID":69120,"ELEMENT_SET_NO":999,"REV_AT_EPOCH":835,"BSTAR":0.000011386339,"MEAN_MOTION_DOT":2.4e-7,"MEAN_MOTION_DDOT":0},{"OBJECT_NAME":"QIANFAN-162","OBJECT_ID":"2026-108T","EPOCH":"2026-07-15T22:02:47.885856","CLASSIFICATION_TYPE":"U","MEAN_MOTION":13.6885752,"ECCENTRICITY":0.0019953,"INCLINATION":89.0103,"RA_OF_ASC_NODE":19.1255,"ARG_OF_PERICENTER":24.7976,"MEAN_ANOMALY":335.414,"EPHEMERIS_TYPE":0,"NORAD_CAT_ID":69121,"ELEMENT_SET_NO":999,"REV_AT_EPOCH":833,"BSTAR":0.000009440272,"MEAN_MOTION_DOT":2.1e-7,"MEAN_MOTION_DDOT":0},{"OBJECT_NAME":"QIANFAN-163","OBJECT_ID":"2026-121A","EPOCH":"2026-07-08T23:20:22.023168","CLASSIFICATION_TYPE":"U","MEAN_MOTION":13.53894414,"ECCENTRICITY":0.00204807,"INCLINATION":89.0049,"RA_OF_ASC_NODE":298.3591,"ARG_OF_PERICENTER":118.563,"MEAN_ANOMALY":241.7588,"EPHEMERIS_TYPE":0,"NORAD_CAT_ID":69325,"ELEMENT_SET_NO":999,"REV_AT_EPOCH":511,"BSTAR":-0.000006639878,"MEAN_MOTION_DOT":8e-8,"MEAN_MOTION_DDOT":0},{"OBJECT_NAME":"QIANFAN-164","OBJECT_ID":"2026-121B","EPOCH":"2026-07-13T16:07:09.757344","CLASSIFICATION_TYPE":"U","MEAN_MOTION":13.49695561,"ECCENTRICITY":0.00228451,"INCLINATION":89.0183,"RA_OF_ASC_NODE":297.8725,"ARG_OF_PERICENTER":112.6356,"MEAN_ANOMALY":247.7213,"EPHEMERIS_TYPE":0,"NORAD_CAT_ID":69326,"ELEMENT_SET_NO":999,"REV_AT_EPOCH":574,"BSTAR":0.000078131509,"MEAN_MOTION_DOT":6.2e-7,"MEAN_MOTION_DDOT":0},{"OBJECT_NAME":"QIANFAN-165","OBJECT_ID":"2026-124A","EPOCH":"2026-07-15T17:13:35.135328","CLASSIFICATION_TYPE":"U","MEAN_MOTION":13.87551985,"ECCENTRICITY":0.00063427,"INCLINATION":88.9998,"RA_OF_ASC_NODE":358.8502,"ARG_OF_PERICENTER":117.7462,"MEAN_ANOMALY":242.4354,"EPHEMERIS_TYPE":0,"NORAD_CAT_ID":69382,"ELEMENT_SET_NO":999,"REV_AT_EPOCH":583,"BSTAR":-1.8316916,"MEAN_MOTION_DOT":-0.02015911,"MEAN_MOTION_DDOT":0},{"OBJECT_NAME":"QIANFAN-166","OBJECT_ID":"2026-124B","EPOCH":"2026-07-15T12:56:06.338400","CLASSIFICATION_TYPE":"U","MEAN_MOTION":13.90187971,"ECCENTRICITY":0.000361,"INCLINATION":89,"RA_OF_ASC_NODE":358.8598,"ARG_OF_PERICENTER":35.346,"MEAN_ANOMALY":324.7952,"EPHEMERIS_TYPE":0,"NORAD_CAT_ID":69383,"ELEMENT_SET_NO":999,"REV_AT_EPOCH":581,"BSTAR":-1.7742528,"MEAN_MOTION_DOT":-0.02041029,"MEAN_MOTION_DDOT":0},{"OBJECT_NAME":"QIANFAN-167","OBJECT_ID":"2026-124C","EPOCH":"2026-07-15T11:56:30.430752","CLASSIFICATION_TYPE":"U","MEAN_MOTION":13.86002135,"ECCENTRICITY":0.00039812,"INCLINATION":89,"RA_OF_ASC_NODE":358.872,"ARG_OF_PERICENTER":133.9242,"MEAN_ANOMALY":226.2258,"EPHEMERIS_TYPE":0,"NORAD_CAT_ID":69384,"ELEMENT_SET_NO":999,"REV_AT_EPOCH":580,"BSTAR":-1.9721889,"MEAN_MOTION_DOT":-0.02106995,"MEAN_MOTION_DDOT":0},{"OBJECT_NAME":"QIANFAN-168","OBJECT_ID":"2026-124D","EPOCH":"2026-07-15T12:51:00.604224","CLASSIFICATION_TYPE":"U","MEAN_MOTION":13.88502145,"ECCENTRICITY":0.00047046,"INCLINATION":88.9992,"RA_OF_ASC_NODE":358.8589,"ARG_OF_PERICENTER":146.9537,"MEAN_ANOMALY":213.1931,"EPHEMERIS_TYPE":0,"NORAD_CAT_ID":69385,"ELEMENT_SET_NO":999,"REV_AT_EPOCH":581,"BSTAR":-1.8304331,"MEAN_MOTION_DOT":-0.02045316,"MEAN_MOTION_DDOT":0},{"OBJECT_NAME":"QIANFAN-169","OBJECT_ID":"2026-124E","EPOCH":"2026-07-15T12:27:41.059872","CLASSIFICATION_TYPE":"U","MEAN_MOTION":13.89871648,"ECCENTRICITY":0.00047746,"INCLINATION":88.9992,"RA_OF_ASC_NODE":358.8569,"ARG_OF_PERICENTER":144.794,"MEAN_ANOMALY":215.3549,"EPHEMERIS_TYPE":0,"NORAD_CAT_ID":69386,"ELEMENT_SET_NO":999,"REV_AT_EPOCH":581,"BSTAR":-1.7736024,"MEAN_MOTION_DOT":-0.02030064,"MEAN_MOTION_DDOT":0},{"OBJECT_NAME":"QIANFAN-170","OBJECT_ID":"2026-124F","EPOCH":"2026-07-15T11:52:02.913024","CLASSIFICATION_TYPE":"U","MEAN_MOTION":13.91582867,"ECCENTRICITY":0.00062188,"INCLINATION":88.9992,"RA_OF_ASC_NODE":358.8519,"ARG_OF_PERICENTER":93.5832,"MEAN_ANOMALY":266.6054,"EPHEMERIS_TYPE":0,"NORAD_CAT_ID":69387,"ELEMENT_SET_NO":999,"REV_AT_EPOCH":581,"BSTAR":-1.7546449,"MEAN_MOTION_DOT":-0.02066021,"MEAN_MOTION_DDOT":0},{"OBJECT_NAME":"QIANFAN-171","OBJECT_ID":"2026-124G","EPOCH":"2026-07-15T16:39:36.712224","CLASSIFICATION_TYPE":"U","MEAN_MOTION":13.91173565,"ECCENTRICITY":0.00070712,"INCLINATION":88.9999,"RA_OF_ASC_NODE":358.8259,"ARG_OF_PERICENTER":105.3795,"MEAN_ANOMALY":254.8161,"EPHEMERIS_TYPE":0,"NORAD_CAT_ID":69388,"ELEMENT_SET_NO":999,"REV_AT_EPOCH":584,"BSTAR":-1.7231943,"MEAN_MOTION_DOT":-0.0201819,"MEAN_MOTION_DDOT":0},{"OBJECT_NAME":"QIANFAN-172","OBJECT_ID":"2026-124H","EPOCH":"2026-07-15T21:52:45.040224","CLASSIFICATION_TYPE":"U","MEAN_MOTION":13.94965331,"ECCENTRICITY":0.00063279,"INCLINATION":89.0003,"RA_OF_ASC_NODE":358.8037,"ARG_OF_PERICENTER":65.8184,"MEAN_ANOMALY":294.3653,"EPHEMERIS_TYPE":0,"NORAD_CAT_ID":69389,"ELEMENT_SET_NO":999,"REV_AT_EPOCH":587,"BSTAR":0.000002130626,"MEAN_MOTION_DOT":1.6e-7,"MEAN_MOTION_DDOT":0},{"OBJECT_NAME":"QIANFAN-173","OBJECT_ID":"2026-124J","EPOCH":"2026-07-15T23:12:13.411296","CLASSIFICATION_TYPE":"U","MEAN_MOTION":13.9527532,"ECCENTRICITY":0.00071781,"INCLINATION":89.0001,"RA_OF_ASC_NODE":358.7933,"ARG_OF_PERICENTER":60.8535,"MEAN_ANOMALY":299.3359,"EPHEMERIS_TYPE":0,"NORAD_CAT_ID":69390,"ELEMENT_SET_NO":999,"REV_AT_EPOCH":588,"BSTAR":0.000011123521,"MEAN_MOTION_DOT":2.9e-7,"MEAN_MOTION_DDOT":0},{"OBJECT_NAME":"QIANFAN-174","OBJECT_ID":"2026-124K","EPOCH":"2026-07-15T22:36:14.571648","CLASSIFICATION_TYPE":"U","MEAN_MOTION":13.97969666,"ECCENTRICITY":0.00071574,"INCLINATION":88.9999,"RA_OF_ASC_NODE":358.7895,"ARG_OF_PERICENTER":62.2101,"MEAN_ANOMALY":297.9801,"EPHEMERIS_TYPE":0,"NORAD_CAT_ID":69391,"ELEMENT_SET_NO":999,"REV_AT_EPOCH":587,"BSTAR":0.000027064945,"MEAN_MOTION_DOT":5.2e-7,"MEAN_MOTION_DDOT":0},{"OBJECT_NAME":"QIANFAN-175","OBJECT_ID":"2026-124L","EPOCH":"2026-07-15T21:00:38.526624","CLASSIFICATION_TYPE":"U","MEAN_MOTION":13.96239619,"ECCENTRICITY":0.00075843,"INCLINATION":89.0007,"RA_OF_ASC_NODE":358.798,"ARG_OF_PERICENTER":69.6686,"MEAN_ANOMALY":290.5305,"EPHEMERIS_TYPE":0,"NORAD_CAT_ID":69392,"ELEMENT_SET_NO":999,"REV_AT_EPOCH":587,"BSTAR":0.000024465595,"MEAN_MOTION_DOT":4.7e-7,"MEAN_MOTION_DDOT":0},{"OBJECT_NAME":"QIANFAN-176","OBJECT_ID":"2026-124M","EPOCH":"2026-07-15T15:46:09.745536","CLASSIFICATION_TYPE":"U","MEAN_MOTION":13.92974666,"ECCENTRICITY":0.0008684,"INCLINATION":88.9989,"RA_OF_ASC_NODE":358.821,"ARG_OF_PERICENTER":85.8481,"MEAN_ANOMALY":274.3686,"EPHEMERIS_TYPE":0,"NORAD_CAT_ID":69393,"ELEMENT_SET_NO":999,"REV_AT_EPOCH":583,"BSTAR":-1.6768458,"MEAN_MOTION_DOT":-0.02025761,"MEAN_MOTION_DDOT":0}]}
