QIANFAN-161             
1 69120U 26108S   26196.92143953  .00000024  00000+0  11386-4 0  9993
2 69120  89.0109  19.1102 0019164  26.4275 333.7864 13.75476813  8353
QIANFAN-162             
1 69121U 26108T   26196.91860979  .00000021  00000+0  94403-5 0  9996
2 69121  89.0103  19.1255 0019953  24.7976 335.4140 13.68857520  8336
QIANFAN-163             
1 69325U 26121A   26189.97247712  .00000008  00000+0 -66399-5 0  9998
2 69325  89.0049 298.3591 0020480 118.5630 241.7588 13.53894414  5116
QIANFAN-164             
1 69326U 26121B   26194.67164071  .00000062  00000+0  78132-4 0  9994
2 69326  89.0183 297.8725 0022845 112.6356 247.7213 13.49695561  5743
QIANFAN-165             
1 69382U 26124A   26196.71776777 -.02015911  00000+0 -18317+1 0  9996
2 69382  88.9998 358.8502 0006342 117.7462 242.4354 13.87551985  5837
QIANFAN-166             
1 69383U 26124B   26196.53896225 -.02041029  00000+0 -17743+1 0  9999
2 69383  89.0000 358.8598 0003610  35.3460 324.7952 13.90187971  5817
QIANFAN-167             
1 69384U 26124C   26196.49757443 -.02106995  00000+0 -19722+1 0  9996
2 69384  89.0000 358.8720 0003981 133.9242 226.2258 13.86002135  5806
QIANFAN-168             
1 69385U 26124D   26196.53542366 -.02045316  00000+0 -18304+1 0  9992
2 69385  88.9992 358.8589 0004704 146.9537 213.1931 13.88502145  5815
QIANFAN-169             
1 69386U 26124E   26196.51922523 -.02030064  00000+0 -17736+1 0  9990
2 69386  88.9992 358.8569 0004774 144.7940 215.3549 13.89871648  5812
QIANFAN-170             
1 69387U 26124F   26196.49447816 -.02066021  00000+0 -17546+1 0  9996
2 69387  88.9992 358.8519 0006218  93.5832 266.6054 13.91582867  5819
QIANFAN-171             
1 69388U 26124G   26196.69417491 -.02018190  00000+0 -17232+1 0  9991
2 69388  88.9999 358.8259 0007071 105.3795 254.8161 13.91173565  5848
QIANFAN-172             
1 69389U 26124H   26196.91163241  .00000016  00000+0  21306-5 0  9994
2 69389  89.0003 358.8037 0006327  65.8184 294.3653 13.94965331  5877
QIANFAN-173             
1 69390U 26124J   26196.96682189  .00000029  00000+0  11124-4 0  9998
2 69390  89.0001 358.7933 0007178  60.8535 299.3359 13.95275320  5883
QIANFAN-174             
1 69391U 26124K   26196.94183532  .00000052  00000+0  27065-4 0  9992
2 69391  88.9999 358.7895 0007157  62.2101 297.9801 13.97969666  5877
QIANFAN-175             
1 69392U 26124L   26196.87544591  .00000047  00000+0  24466-4 0  9997
2 69392  89.0007 358.7980 0007584  69.6686 290.5305 13.96239619  5873
QIANFAN-176             
1 69393U 26124M   26196.65705724 -.02025761  00000+0 -16768+1 0  9997
2 69393  88.9989 358.8210 0008684  85.8481 274.3686 13.92974666  5835
